{
    "links": {
        "self": "http://www.neowsapp.com/rest/v1/neo/3748554?api_key=iIulBulltgU6a56xZRHN4H3l9WmuAYTsLGpBGhQ2"
    },
    "id": "3748554",
    "neo_reference_id": "3748554",
    "name": "(2016 GY)",
    "designation": "2016 GY",
    "nasa_jpl_url": "http://ssd.jpl.nasa.gov/sbdb.cgi?sstr=3748554",
    "absolute_magnitude_h": 26.4,
    "estimated_diameter": {
        "kilometers": {
            "estimated_diameter_min": 0.0139493823,
            "estimated_diameter_max": 0.0311917671
        },
        "meters": {
            "estimated_diameter_min": 13.9493822934,
            "estimated_diameter_max": 31.1917670523
        },
        "miles": {
            "estimated_diameter_min": 0.0086677416,
            "estimated_diameter_max": 0.0193816595
        },
        "feet": {
            "estimated_diameter_min": 45.7656914036,
            "estimated_diameter_max": 102.3351970157
        }
    },
    "is_potentially_hazardous_asteroid": false,
    "close_approach_data": [
        {
            "close_approach_date": "2016-04-08",
            "close_approach_date_full": "2016-Apr-08 23:14",
            "epoch_date_close_approach": 1460157240000,
            "relative_velocity": {
                "kilometers_per_second": "4.68761253",
                "kilometers_per_hour": "16875.4051078393",
                "miles_per_hour": "10485.7204682572"
            },
            "miss_distance": {
                "astronomical": "0.0697807225",
                "lunar": "27.1447010525",
                "kilometers": "10439047.453061075",
                "miles": "6486523.303249835"
            },
            "orbiting_body": "Earth"
        }
    ],
    "orbital_data": {
        "orbit_id": "7",
        "orbit_determination_date": "2017-04-06 08:26:55",
        "first_observation_date": "2016-04-01",
        "last_observation_date": "2016-05-06",
        "data_arc_in_days": 35,
        "observations_used": 28,
        "orbit_uncertainty": "7",
        "minimum_orbit_intersection": ".0688636",
        "jupiter_tisserand_invariant": "4.212",
        "epoch_osculation": "2459000.5",
        "eccentricity": ".3500769097929207",
        "semi_major_axis": "1.64583573274508",
        "inclination": "4.781114312900126",
        "ascending_node_longitude": "191.5627594818399",
        "orbital_period": "771.2197760480383",
        "perihelion_distance": "1.069666645398915",
        "perihelion_argument": "10.27331934425541",
        "aphelion_distance": "2.222004820091245",
        "perihelion_time": "2459031.652763856639",
        "mean_anomaly": "345.4581076151093",
        "mean_motion": ".4667930091792357",
        "equinox": "J2000",
        "orbit_class": {
            "orbit_class_type": "AMO",
            "orbit_class_description": "Near-Earth asteroid orbits similar to that of 1221 Amor",
            "orbit_class_range": "1.017 AU < q (perihelion) < 1.3 AU"
        }
    },
    "is_sentry_object": false
}